INTELSAT 10 (IS-10)     
1 26766U 01019A   25195.76989301  .00000109  00000+0  00000+0 0  9991
2 26766   8.2554  62.7041 0001734  92.1622 114.7717  0.99717804 42234
INTELSAT 902 (IS-902)   
1 26900U 01039A   25197.54811456 -.00000278  00000+0  00000+0 0  9994
2 26900   5.2664  75.9075 0004357  37.1919 328.7376  1.00272937 87400
INTELSAT 904 (IS-904)   
1 27380U 02007A   25201.40721396 -.00000208  00000+0  00000+0 0  9990
2 27380   6.0859  73.1763 0002410  72.4667 271.9250  1.00271092 48433
DIRECTV 5 (TEMPO 1)     
1 27426U 02023A   25201.40169729 -.00000059  00000+0  00000+0 0  9999
2 27426   4.0258  79.4951 0003052  48.4096 205.0081  1.00270854 84799
INTELSAT 905 (IS-905)   
1 27438U 02027A   25201.47251127  .00000090  00000+0  00000+0 0  9991
2 27438   5.9152  73.8106 0002265  59.4278 198.1533  1.00273362 48032
GALAXY 3C (G-3C)        
1 27445U 02030A   25201.53661086 -.00000154  00000+0  00000+0 0  9991
2 27445   2.8784  82.1713 0002912  53.8619 260.8514  1.00270740 43162
INTELSAT 906 (IS-906)   
1 27513U 02041A   25201.13990703  .00000010  00000+0  00000+0 0  9996
2 27513   4.9557  77.0438 0003268  27.8711 307.7457  1.00272442 83695
GALAXY 23 (G-23)        
1 27854U 03034A   25201.58933458 -.00000232  00000+0  00000+0 0  9997
2 27854   2.3373  83.7601 0000395 100.9466  91.7579  0.98993517 80416
GALAXY 13 (HORIZONS-1)  
1 27954U 03044A   25201.52569080  .00000133  00000+0  00000+0 0  9998
2 27954   0.5585  89.0427 0002045  14.3380 234.4108  1.00270712 43247
INTELSAT 10-02          
1 28358U 04022A   25201.55524428 -.00000010  00000+0  00000+0 0  9999
2 28358   0.0457 253.3183 0000872 266.2535 337.9047  1.00270035 77235
XM-3 (RHYTHM)           
1 28626U 05008A   25201.53825753 -.00000198  00000+0  00000+0 0  9992
2 28626   0.0178 100.1361 0000489 104.5711 201.2884  1.00267718 39294
DIRECTV 8               
1 28659U 05019A   25201.53184417  .00000002  00000+0  00000+0 0  9998
2 28659   0.0019 120.6943 0002845  11.4645 238.8037  1.00271582 73745
GALAXY 28 (G-28)        
1 28702U 05022A   25201.53782420 -.00000188  00000+0  00000+0 0  9995
2 28702   2.4421  83.1304 0002814  37.9591 282.3788  1.00271560 48655
GALAXY 16 (G-16)        
1 29236U 06023A   25201.53574419 -.00000126  00000+0  00000+0 0  9999
2 29236   0.0596 235.9109 0002789 255.9919 260.5107  1.00271094 69649
DIRECTV 9S              
1 29494U 06043A   25201.53531086 -.00000114  00000+0  00000+0 0  9997
2 29494   1.5615  85.0638 0002901  44.6693 260.3274  1.00271751 48057
GALAXY 17 (G-17)        
1 31307U 07016B   25201.53851753 -.00000207  00000+0  00000+0 0  9993
2 31307   2.1291  84.2033 0001555  38.1182 285.0682  1.00270510 66470
DIRECTV 10              
1 31862U 07032A   25201.40891884 -.00000101  00000+0  00000+0 0  9995
2 31862   0.0378 236.3973 0000518 324.3172 142.1249  1.00269488 42264
INTELSAT 11 (IS-11)     
1 32253U 07044B   25201.58401554 -.00000288  00000+0  00000+0 0  9999
2 32253   2.6980  82.8212 0005130  89.8765 120.2499  0.99051772 65162
HORIZONS-2              
1 32388U 07063B   25201.54077088 -.00000254  00000+0  00000+0 0  9999
2 32388   1.7429  84.8534 0002116  60.4619 274.1220  1.00271070 64485
DIRECTV 11              
1 32729U 08013A   25201.53574419 -.00000125  00000+0  00000+0 0  9990
2 32729   0.0028 295.5070 0000457 309.4592 147.2635  1.00272990 42263
GALAXY 18 (G-18)        
1 32951U 08024A   25201.53106417  .00000026  00000+0  00000+0 0  9997
2 32951   0.0288  59.4420 0002987  77.7358 229.5516  1.00271389 42521
INTELSAT 25 (IS-25)     
1 33153U 08034A   25201.47781659 -.00000225  00000+0  00000+0 0  9995
2 33153   1.8494  84.5196 0003328  54.9671 299.5235  1.00272155 62369
GALAXY 19 (G-19)        
1 33376U 08045A   25201.53617752 -.00000138  00000+0  00000+0 0  9996
2 33376   0.0485 255.3033 0002815 233.0318 266.2386  1.00270865 61579
FM-5                    
1 35493U 09034A   25201.34443350 -.00000198  00000+0  00000+0 0  9993
2 35493   0.0243 295.2280 0000684  64.4268 336.5468  1.00271339 43313
INTELSAT 14 (IS-14)     
1 36097U 09064A   25201.40374727 -.00000272  00000+0  00000+0 0  9998
2 36097   0.0120  32.8148 0002623 102.7017 263.2495  1.00271434 57271
INTELSAT 15 (IS-15)     
1 36106U 09067A   25201.61155829 -.00000185  00000+0  00000+0 0  9998
2 36106   0.0159  73.4187 0002164  57.1384 113.3749  1.00271603 37901
DIRECTV 12              
1 36131U 09075A   25201.60184723 -.00000102  00000+0  00000+0 0  9998
2 36131   0.0060 281.6780 0000146 233.4463 257.4418  1.00270146 43223
INTELSAT 16 (IS-16)     
1 36397U 10006A   25201.54033755 -.00000243  00000+0  00000+0 0  9995
2 36397   0.0220 309.1353 0002406 201.9554 265.7755  1.00270898 56324
XM-5                    
1 37185U 10053A   25201.53297084 -.00000022  00000+0  00000+0 0  9994
2 37185   0.0540 262.0895 0000368  95.5404  17.5912  1.00270729 54159
INTELSAT 17 (IS-17)     
1 37238U 10065B   25201.42576071 -.00000001  00000+0  00000+0 0  9997
2 37238   0.0074  65.4532 0002961  65.7763  26.4884  1.00273050 49927
INTELSAT 28 (IS-28)     
1 37392U 11016A   25201.40634728 -.00000224  00000+0  00000+0 0  9994
2 37392   0.9455  87.1128 0004123  27.7010 298.2022  1.00270904 49958
INTELSAT 18 (IS-18)     
1 37834U 11056A   25201.53239113  .00000053  00000+0  00000+0 0  9991
2 37834   0.0246  51.5620 0001515  83.6092 175.0389  1.00270064 50488
INTELSAT 22 (IS-22)     
1 38098U 12011A   25201.56971549 -.00000058  00000+0  00000+0 0  9991
2 38098   0.0234  68.6281 0001786  49.8461  97.3021  1.00272219  3867
INTELSAT 19 (IS-19)     
1 38356U 12030A   25201.53447578 -.00000056  00000+0  00000+0 0  9994
2 38356   0.0162  11.6993 0003008 120.3663 164.8954  1.00272329 47124
INTELSAT 20 (IS-20)     
1 38740U 12043A   25201.42628071 -.00000023  00000+0  00000+0 0  9996
2 38740   0.0142  76.3429 0000513 107.3326 336.7268  1.00270626 47429
INTELSAT 21 (IS-21)     
1 38749U 12045A   25201.54389089 -.00000284  00000+0  00000+0 0  9992
2 38749   0.0148  65.8390 0002055 103.4455 267.0743  1.00270634 47194
INTELSAT 23 (IS-23)     
1 38867U 12057A   25201.47635397 -.00000283  00000+0  00000+0 0  9993
2 38867   0.0226 140.1619 0000316 149.2811 127.5493  1.00277165 46620
FM-6                    
1 39360U 13058A   25201.53236417 -.00000016  00000+0  00000+0 0  9995
2 39360   0.0090  52.5205 0001587 116.3170 205.2149  1.00271952 42737
INTELSAT 30 (IS-30)     
1 40271U 14062A   25201.60278500 -.00000150  00000+0  00000+0 0  9990
2 40271   0.0113  42.7571 0001454 341.9776  35.8241  1.00269578  3451
DIRECTV 14              
1 40333U 14078B   25201.53574419 -.00000124  00000+0  00000+0 0  9997
2 40333   0.0181  46.5498 0000544 162.5008 183.1449  1.00270540 38714
DIRECTV 15              
1 40663U 15026A   25201.60184637 -.00000102  00000+0  00000+0 0  9990
2 40663   0.0161  76.9572 0000336 283.1339  52.3241  1.00271862 37134
SKY MEXICO-1            
1 40664U 15026B   25201.63196785 -.00000234  00000+0  00000+0 0  9997
2 40664   0.0189  69.8082 0001904  59.4864 318.1014  1.00271575 37133
INTELSAT 34 (IS-34)     
1 40874U 15039A   25201.47304990 -.00000284  00000+0  00000+0 0  9990
2 40874   0.0243  48.1750 0001703 300.6262  64.4983  1.00268907 36296
INTELSAT 31 (IS-31)     
1 41581U 16035A   25201.41519940 -.00000149  00000+0  00000+0 0  9990
2 41581   0.0134  51.3139 0002102 191.8998 109.6328  1.00268673 33357
INTELSAT 36 (IS-36)     
1 41747U 16053A   25201.56962882 -.00000024  00000+0  00000+0 0  9999
2 41747   0.0095  21.9165 0002095 319.6509 230.5701  1.00273466 32622
INTELSAT 32E (IS-32E)   
1 41945U 17007B   25201.41839457 -.00000268  00000+0  00000+0 0  9994
2 41945   0.0146  67.1414 0001056 291.8817  46.8590  1.00270373 30892
INTELSAT 35E (IS-35E)   
1 42818U 17041A   25201.47720991 -.00000237  00000+0  00000+0 0  9996
2 42818   0.0192  48.4292 0001743  88.4837 298.9005  1.00271040 29480
INTELSAT 37E (IS-37E)   
1 42950U 17059A   25201.40912064 -.00000140  00000+0  00000+0 0  9992
2 42950   0.0247  56.4477 0002773  85.0442 286.2211  1.00269978 28734
AZERSPACE 2 (IS-38)     
1 43632U 18074A   25201.62403723  .00000137  00000+0  00000+0 0  9994
2 43632   0.0140  13.6076 0001165 101.0170  93.7749  1.00269959 25121
HORIZONS-3E             
1 43633U 18074B   25201.53239113 -.00000030  00000+0  00000+0 0  9998
2 43633   0.0575 215.7023 0001099  70.9018  12.6069  1.00270707 25018
AT&T T-16               
1 44333U 19034A   25200.67887980 -.00000111  00000+0  00000+0 0  9998
2 44333   0.0240  81.2948 0000601 272.9041  87.0412  1.00269208 22294
INTELSAT 39 (IS-39)     
1 44476U 19049B   25201.63679166  .00000034  00000+0  00000+0 0  9997
2 44476   0.0249  50.8564 0001303 266.6675 272.3204  1.00269771 21809
GALAXY 30 (G-30)        
1 46114U 20056C   25201.53063082  .00000038  00000+0  00000+0 0  9995
2 46114   0.0185  48.8272 0001920  73.9264 241.8149  1.00270361 17968
GALAXY 33 (G-33)        
1 54026U 22128A   25201.62463962  .00000080  00000+0  00000+0 0  9996
2 54026   0.0196  73.1603 0001636  51.6730 265.6645  1.00270964 10412
GALAXY 34 (G-34)        
1 54027U 22128B   25200.74465259  .00000063  00000+0  00000+0 0  9991
2 54027   0.0093  54.4314 0001356  76.2607 306.1455  1.00271632 10575
GALAXY 31 (G-31)        
1 54243U 22153A   25201.30950733  .00000015  00000+0  00000+0 0  9995
2 54243   0.0227 102.9114 0000727  81.1901 104.6433  1.00271209  3809
GALAXY 32 (G-32)        
1 54244U 22153B   25200.82345328 -.00000171  00000+0  00000+0 0  9994
2 54244   0.0124  55.3605 0001297 359.5245  88.4072  1.00271277  9818
GALAXY 35 (G-35)        
1 54741U 22170A   25201.53695752 -.00000161  00000+0  00000+0 0  9992
2 54741   0.0172  98.3439 0001816  25.1889 275.2256  1.00271436  9561
GALAXY 36 (G-36)        
1 54742U 22170B   25201.53773753 -.00000184  00000+0  00000+0 0  9996
2 54742   0.0197  88.8656 0002423  21.5798 292.6864  1.00271036  9449
GALAXY 37 (G-37)        
1 57493U 23112A   25201.60316083  .00000049  00000+0  00000+0 0  9995
2 57493   0.0047 351.2422 0001851 133.4190 264.0929  1.00271070  7216
